[{"OBJECT_NAME":"ONEWEB-0712","OBJECT_ID":"2022-166AQ","EPOCH":"2026-01-01T05:55:13.963296","MEAN_MOTION":13.16593148,"ECCENTRICITY":0.00019278,"INCLINATION":87.9043,"RA_OF_ASC_NODE":262.0116,"ARG_OF_PERICENTER":61.4443,"MEAN_ANOMALY":298.6882,"EPHEMERIS_TYPE":0,"CLASSIFICATION_TYPE":"U","NORAD_CAT_ID":54680,"ELEMENT_SET_NO":999,"REV_AT_EPOCH":15009,"BSTAR":3.8729757e-5,"MEAN_MOTION_DOT":2.8e-7,"MEAN_MOTION_DDOT":0},{"OBJECT_NAME":"ONEWEB-0714","OBJECT_ID":"2022-166AR","EPOCH":"2026-01-01T06:19:22.420416","MEAN_MOTION":13.21826434,"ECCENTRICITY":0.00018406,"INCLINATION":87.9227,"RA_OF_ASC_NODE":277.2795,"ARG_OF_PERICENTER":73.6907,"MEAN_ANOMALY":286.4429,"EPHEMERIS_TYPE":0,"CLASSIFICATION_TYPE":"U","NORAD_CAT_ID":54681,"ELEMENT_SET_NO":999,"REV_AT_EPOCH":14948,"BSTAR":1.6479785e-5,"MEAN_MOTION_DOT":2.0e-7,"MEAN_MOTION_DDOT":0},{"OBJECT_NAME":"ONEWEB-0532","OBJECT_ID":"2023-004A","EPOCH":"2026-01-01T03:00:56.684448","MEAN_MOTION":13.176498,"ECCENTRICITY":0.00019004,"INCLINATION":87.91,"RA_OF_ASC_NODE":39.0728,"ARG_OF_PERICENTER":108.9613,"MEAN_ANOMALY":251.1725,"EPHEMERIS_TYPE":0,"CLASSIFICATION_TYPE":"U","NORAD_CAT_ID":55140,"ELEMENT_SET_NO":999,"REV_AT_EPOCH":14558,"BSTAR":0.00014337487,"MEAN_MOTION_DOT":6.9e-7,"MEAN_MOTION_DDOT":0},{"OBJECT_NAME":"ONEWEB-0533","OBJECT_ID":"2023-004B","EPOCH":"2026-01-01T02:48:14.055840","MEAN_MOTION":13.12444269,"ECCENTRICITY":0.00019006,"INCLINATION":87.8928,"RA_OF_ASC_NODE":23.8458,"ARG_OF_PERICENTER":91.4723,"MEAN_ANOMALY":268.6623,"EPHEMERIS_TYPE":0,"CLASSIFICATION_TYPE":"U","NORAD_CAT_ID":55141,"ELEMENT_SET_NO":999,"REV_AT_EPOCH":14614,"BSTAR":0.0012772842,"MEAN_MOTION_DOT":4.72e-6,"MEAN_MOTION_DDOT":0},{"OBJECT_NAME":"ONEWEB-0541","OBJECT_ID":"2023-004C","EPOCH":"2026-01-01T04:02:52.315584","MEAN_MOTION":13.1141689,"ECCENTRICITY":0.00016807,"INCLINATION":87.8843,"RA_OF_ASC_NODE":54.3044,"ARG_OF_PERICENTER":102.8333,"MEAN_ANOMALY":257.2982,"EPHEMERIS_TYPE":0,"CLASSIFICATION_TYPE":"U","NORAD_CAT_ID":55142,"ELEMENT_SET_NO":999,"REV_AT_EPOCH":14405,"BSTAR":-0.0013546078,"MEAN_MOTION_DOT":-4.67e-6,"MEAN_MOTION_DDOT":0},{"OBJECT_NAME":"ONEWEB-0543","OBJECT_ID":"2023-004D","EPOCH":"2026-01-01T02:00:36.502848","MEAN_MOTION":13.18683611,"ECCENTRICITY":0.00017953,"INCLINATION":87.9154,"RA_OF_ASC_NODE":8.6734,"ARG_OF_PERICENTER":80.6617,"MEAN_ANOMALY":279.4718,"EPHEMERIS_TYPE":0,"CLASSIFICATION_TYPE":"U","NORAD_CAT_ID":55143,"ELEMENT_SET_NO":999,"REV_AT_EPOCH":14767,"BSTAR":3.6876408e-5,"MEAN_MOTION_DOT":2.7e-7,"MEAN_MOTION_DDOT":0},{"OBJECT_NAME":"ONEWEB-0544","OBJECT_ID":"2023-004E","EPOCH":"2026-01-01T01:51:08.684640","MEAN_MOTION":13.18686321,"ECCENTRICITY":0.00015072,"INCLINATION":87.9158,"RA_OF_ASC_NODE":8.6664,"ARG_OF_PERICENTER":85.3332,"MEAN_ANOMALY":274.7972,"EPHEMERIS_TYPE":0,"CLASSIFICATION_TYPE":"U","NORAD_CAT_ID":55144,"ELEMENT_SET_NO":999,"REV_AT_EPOCH":14767,"BSTAR":8.926117e-5,"MEAN_MOTION_DOT":4.8e-7,"MEAN_MOTION_DDOT":0},{"OBJECT_NAME":"ONEWEB-0560","OBJECT_ID":"2023-004F","EPOCH":"2026-01-01T01:41:37.483008","MEAN_MOTION":13.1868695,"ECCENTRICITY":0.00015458,"INCLINATION":87.9164,"RA_OF_ASC_NODE":8.6556,"ARG_OF_PERICENTER":83.2625,"MEAN_ANOMALY":276.8683,"EPHEMERIS_TYPE":0,"CLASSIFICATION_TYPE":"U","NORAD_CAT_ID":55145,"ELEMENT_SET_NO":999,"REV_AT_EPOCH":14768,"BSTAR":7.2544516e-5,"MEAN_MOTION_DOT":4.2e-7,"MEAN_MOTION_DDOT":0},{"OBJECT_NAME":"ONEWEB-0565","OBJECT_ID":"2023-004G","EPOCH":"2025-12-31T23:42:51.435648","MEAN_MOTION":13.18687001,"ECCENTRICITY":0.00012407,"INCLINATION":87.9153,"RA_OF_ASC_NODE":8.716,"ARG_OF_PERICENTER":97.3344,"MEAN_ANOMALY":262.7929,"EPHEMERIS_TYPE":0,"CLASSIFICATION_TYPE":"U","NORAD_CAT_ID":55146,"ELEMENT_SET_NO":999,"REV_AT_EPOCH":14766,"BSTAR":-5.3281426e-5,"MEAN_MOTION_DOT":-8.0e-8,"MEAN_MOTION_DDOT":0},{"OBJECT_NAME":"ONEWEB-0567","OBJECT_ID":"2023-004H","EPOCH":"2025-12-31T12:37:46.761024","MEAN_MOTION":13.18687801,"ECCENTRICITY":0.0001293,"INCLINATION":87.9161,"RA_OF_ASC_NODE":8.7765,"ARG_OF_PERICENTER":88.9919,"MEAN_ANOMALY":271.1362,"EPHEMERIS_TYPE":0,"CLASSIFICATION_TYPE":"U","NORAD_CAT_ID":55147,"ELEMENT_SET_NO":999,"REV_AT_EPOCH":14760,"BSTAR":0.00015908565,"MEAN_MOTION_DOT":7.6e-7,"MEAN_MOTION_DDOT":0},{"OBJECT_NAME":"ONEWEB-0569","OBJECT_ID":"2023-004J","EPOCH":"2026-01-01T00:38:38.732352","MEAN_MOTION":13.13469015,"ECCENTRICITY":0.00010813,"INCLINATION":87.899,"RA_OF_ASC_NODE":353.4296,"ARG_OF_PERICENTER":54.8154,"MEAN_ANOMALY":305.3076,"EPHEMERIS_TYPE":0,"CLASSIFICATION_TYPE":"U","NORAD_CAT_ID":55148,"ELEMENT_SET_NO":999,"REV_AT_EPOCH":14823,"BSTAR":0.00040106551,"MEAN_MOTION_DOT":1.59e-6,"MEAN_MOTION_DDOT":0},{"OBJECT_NAME":"ONEWEB-0570","OBJECT_ID":"2023-004K","EPOCH":"2025-12-31T12:23:32.508672","MEAN_MOTION":13.1868548,"ECCENTRICITY":0.00016872,"INCLINATION":87.9163,"RA_OF_ASC_NODE":8.7781,"ARG_OF_PERICENTER":107.0606,"MEAN_ANOMALY":253.0711,"EPHEMERIS_TYPE":0,"CLASSIFICATION_TYPE":"U","NORAD_CAT_ID":55149,"ELEMENT_SET_NO":999,"REV_AT_EPOCH":14759,"BSTAR":-1.6580007e-5,"MEAN_MOTION_DOT":6.0e-8,"MEAN_MOTION_DDOT":0},{"OBJECT_NAME":"ONEWEB-0571","OBJECT_ID":"2023-004L","EPOCH":"2025-12-31T12:14:02.879520","MEAN_MOTION":13.18685205,"ECCENTRICITY":4.889e-5,"INCLINATION":87.9159,"RA_OF_ASC_NODE":8.7786,"ARG_OF_PERICENTER":94.2799,"MEAN_ANOMALY":265.8389,"EPHEMERIS_TYPE":0,"CLASSIFICATION_TYPE":"U","NORAD_CAT_ID":55150,"ELEMENT_SET_NO":999,"REV_AT_EPOCH":14760,"BSTAR":0.00016669797,"MEAN_MOTION_DOT":7.9e-7,"MEAN_MOTION_DDOT":0},{"OBJECT_NAME":"ONEWEB-0572","OBJECT_ID":"2023-004M","EPOCH":"2026-01-01T01:55:20.040384","MEAN_MOTION":13.17649505,"ECCENTRICITY":0.00015795,"INCLINATION":87.9092,"RA_OF_ASC_NODE":39.0904,"ARG_OF_PERICENTER":99.8198,"MEAN_ANOMALY":260.3111,"EPHEMERIS_TYPE":0,"CLASSIFICATION_TYPE":"U","NORAD_CAT_ID":55151,"ELEMENT_SET_NO":999,"REV_AT_EPOCH":14547,"BSTAR":0.00023627391,"MEAN_MOTION_DOT":1.05e-6,"MEAN_MOTION_DDOT":0},{"OBJECT_NAME":"ONEWEB-0573","OBJECT_ID":"2023-004N","EPOCH":"2025-12-31T13:53:47.830848","MEAN_MOTION":13.18685393,"ECCENTRICITY":0.00011761,"INCLINATION":87.9151,"RA_OF_ASC_NODE":8.7688,"ARG_OF_PERICENTER":114.7202,"MEAN_ANOMALY":245.4053,"EPHEMERIS_TYPE":0,"CLASSIFICATION_TYPE":"U","NORAD_CAT_ID":55152,"ELEMENT_SET_NO":999,"REV_AT_EPOCH":14760,"BSTAR":5.9920514e-5,"MEAN_MOTION_DOT":3.7e-7,"MEAN_MOTION_DDOT":0},{"OBJECT_NAME":"ONEWEB-0588","OBJECT_ID":"2023-004P","EPOCH":"2026-01-01T00:39:51.870816","MEAN_MOTION":13.18687894,"ECCENTRICITY":0.00015829,"INCLINATION":87.9162,"RA_OF_ASC_NODE":8.6763,"ARG_OF_PERICENTER":105.1726,"MEAN_ANOMALY":254.9582,"EPHEMERIS_TYPE":0,"CLASSIFICATION_TYPE":"U","NORAD_CAT_ID":55153,"ELEMENT_SET_NO":999,"REV_AT_EPOCH":14766,"BSTAR":0.00025369906,"MEAN_MOTION_DOT":1.13e-6,"MEAN_MOTION_DDOT":0},{"OBJECT_NAME":"ONEWEB-0598","OBJECT_ID":"2023-004Q","EPOCH":"2026-01-01T03:31:08.177088","MEAN_MOTION":13.11413636,"ECCENTRICITY":0.00011631,"INCLINATION":87.883,"RA_OF_ASC_NODE":54.3343,"ARG_OF_PERICENTER":92.9266,"MEAN_ANOMALY":267.1995,"EPHEMERIS_TYPE":0,"CLASSIFICATION_TYPE":"U","NORAD_CAT_ID":55154,"ELEMENT_SET_NO":999,"REV_AT_EPOCH":14400,"BSTAR":0.00051624054,"MEAN_MOTION_DOT":1.96e-6,"MEAN_MOTION_DDOT":0}]
