ONEWEB-0712             
1 54680U 22166AQ  26001.24668939  .00000028  00000+0  38730-4 0  9990
2 54680  87.9043 262.0116 0001927  61.4443 298.6882 13.16593148150094
ONEWEB-0714             
1 54681U 22166AR  26001.26345394  .00000020  00000+0  16480-4 0  9990
2 54681  87.9227 277.2795 0001840  73.6907 286.4429 13.21826434149480
ONEWEB-0532             
1 55140U 23004A   26001.12565607  .00000069  00000+0  14337-3 0  9990
2 55140  87.9100  39.0728 0001900 108.9613 251.1725 13.17649800145584
ONEWEB-0533             
1 55141U 23004B   26001.11682935  .00000472  00000+0  12773-2 0  9993
2 55141  87.8928  23.8458 0001900  91.4723 268.6623 13.12444269146141
ONEWEB-0541             
1 55142U 23004C   26001.16866106 -.00000467  00000+0 -13546-2 0  9998
2 55142  87.8843  54.3044 0001680 102.8333 257.2982 13.11416890144055
ONEWEB-0543             
1 55143U 23004D   26001.08375582  .00000027  00000+0  36876-4 0  9996
2 55143  87.9154   8.6734 0001795  80.6617 279.4718 13.18683611147673
ONEWEB-0544             
1 55144U 23004E   26001.07718385  .00000048  00000+0  89261-4 0  9997
2 55144  87.9158   8.6664 0001507  85.3332 274.7972 13.18686321147678
ONEWEB-0560             
1 55145U 23004F   26001.07057272  .00000042  00000+0  72545-4 0  9990
2 55145  87.9164   8.6556 0001545  83.2625 276.8683 13.18686950147681
ONEWEB-0565             
1 55146U 23004G   25365.98809532 -.00000008  00000+0 -53281-4 0  9997
2 55146  87.9153   8.7160 0001240  97.3344 262.7929 13.18687001147661
ONEWEB-0567             
1 55147U 23004H   25365.52623566  .00000076  00000+0  15909-3 0  9996
2 55147  87.9161   8.7765 0001293  88.9919 271.1362 13.18687801147601
ONEWEB-0569             
1 55148U 23004J   26001.02683718  .00000159  00000+0  40107-3 0  9995
2 55148  87.8990 353.4296 0001081  54.8154 305.3076 13.13469015148230
ONEWEB-0570             
1 55149U 23004K   25365.51634848  .00000006  00000+0 -16580-4 0  9993
2 55149  87.9163   8.7781 0001687 107.0606 253.0711 13.18685480147592
ONEWEB-0571             
1 55150U 23004L   25365.50975555  .00000079  00000+0  16670-3 0  9995
2 55150  87.9159   8.7786 0000488  94.2799 265.8389 13.18685205147601
ONEWEB-0572             
1 55151U 23004M   26001.08009306  .00000105  00000+0  23627-3 0  9999
2 55151  87.9092  39.0904 0001579  99.8198 260.3111 13.17649505145471
ONEWEB-0573             
1 55152U 23004N   25365.57902582  .00000037  00000+0  59921-4 0  9995
2 55152  87.9151   8.7688 0001176 114.7202 245.4053 13.18685393147608
ONEWEB-0588             
1 55153U 23004P   26001.02768369  .00000113  00000+0  25370-3 0  9992
2 55153  87.9162   8.6763 0001582 105.1726 254.9582 13.18687894147666
ONEWEB-0598             
1 55154U 23004Q   26001.14662242  .00000196  00000+0  51624-3 0  9991
2 55154  87.8830  54.3343 0001163  92.9266 267.1995 13.11413636144000
